SL-3 R/B                
1 13403U 82079B   26043.26728239  .00006334  00000+0  25520-3 0  9993
2 13403  81.1442 223.0873 0024159 251.9568 107.9033 15.24417581373829
SL-14 R/B               
1 13553U 82092B   26042.87619881  .00000623  00000+0  67170-4 0  9995
2 13553  82.5707 165.5361 0021078  30.7572  90.4616 14.86638017325096
SL-3 R/B                
1 13819U 83010B   26042.99857631  .00015800  00000+0  32743-3 0  9991
2 13819  81.1027  33.7221 0018217 132.3465 227.9326 15.45426906353974
SL-3 R/B                
1 14208U 83075B   26043.24927840  .00013734  00000+0  36976-3 0  9990
2 14208  97.6132  46.8804 0020624 325.6172  34.3736 15.37762228326241
COSMOS 1536             
1 14699U 84013A   26043.23834426  .00006570  00000+0  27337-3 0  9994
2 14699  82.5470 133.1389 0014560  17.8488 342.3257 15.23483988268741
SL-14 R/B               
1 14820U 84027B   26043.17204121  .00000484  00000+0  52482-4 0  9999
2 14820  82.5394 268.9510 0019332  60.3437 299.9701 14.85951140243846
SL-8 R/B                
1 15483U 85006B   26043.21137247  .00000239  00000+0  87822-4 0  9996
2 15483  74.0466 308.0312 0019382 230.8843 291.9178 14.37770707150363
SL-12 R/B(2)            
1 15772U 85042D   26042.74723965  .00000140  00000+0  84299-4 0  9998
2 15772  71.1087 142.5376 0034744 169.8152 306.1122 14.21975225110702
SL-14 R/B               
1 15945U 85069B   26043.02990576  .00000601  00000+0  65235-4 0  9996
2 15945  82.5241  49.0659 0017196 278.3209  81.6057 14.86402598169028
SL-16 R/B               
1 16182U 85097B   26042.86989764 -.00000199  00000+0 -75913-4 0  9997
2 16182  71.0020 194.9075 0009704 289.8410 182.4138 14.16595725 83572
SL-14 R/B               
1 16496U 86006B   26043.14831181  .00000762  00000+0  78372-4 0  9993
2 16496  82.5260 283.7788 0076617 358.5733   1.5252 14.86780878145412
COSMOS 1743             
1 16719U 86034A   26043.20114722  .00035386  00000+0  49404-3 0  9997
2 16719  82.5329 100.5425 0004783  42.6153 317.5472 15.56693467176280
