CCSDS_OMM_VERS = 2.0
CREATION_DATE  = 
ORIGINATOR     = 

OBJECT_NAME    = SL-3 R/B
OBJECT_ID      = 1982-079B
CENTER_NAME    = EARTH
REF_FRAME      = TEME
TIME_SYSTEM    = UTC
MEAN_ELEMENT_THEORY = SGP/SGP4

EPOCH          = 2026-02-12T06:24:53.198496
MEAN_MOTION    = 15.24417581
ECCENTRICITY   = .00241593
INCLINATION    = 81.1442
RA_OF_ASC_NODE = 223.0873
ARG_OF_PERICENTER = 251.9568
MEAN_ANOMALY   = 107.9033

EPHEMERIS_TYPE = 0
CLASSIFICATION_TYPE = U
NORAD_CAT_ID   = 13403
ELEMENT_SET_NO = 999
REV_AT_EPOCH   = 37382
BSTAR          = .2552006E-3
MEAN_MOTION_DOT = .6334E-4
MEAN_MOTION_DDOT = 0

CCSDS_OMM_VERS = 2.0
CREATION_DATE  = 
ORIGINATOR     = 

OBJECT_NAME    = SL-14 R/B
OBJECT_ID      = 1982-092B
CENTER_NAME    = EARTH
REF_FRAME      = TEME
TIME_SYSTEM    = UTC
MEAN_ELEMENT_THEORY = SGP/SGP4

EPOCH          = 2026-02-11T21:01:43.577184
MEAN_MOTION    = 14.86638017
ECCENTRICITY   = .0021078
INCLINATION    = 82.5707
RA_OF_ASC_NODE = 165.5361
ARG_OF_PERICENTER = 30.7572
MEAN_ANOMALY   = 90.4616

EPHEMERIS_TYPE = 0
CLASSIFICATION_TYPE = U
NORAD_CAT_ID   = 13553
ELEMENT_SET_NO = 999
REV_AT_EPOCH   = 32509
BSTAR          = .6717E-4
MEAN_MOTION_DOT = .623E-5
MEAN_MOTION_DDOT = 0

CCSDS_OMM_VERS = 2.0
CREATION_DATE  = 
ORIGINATOR     = 

OBJECT_NAME    = SL-3 R/B
OBJECT_ID      = 1983-010B
CENTER_NAME    = EARTH
REF_FRAME      = TEME
TIME_SYSTEM    = UTC
MEAN_ELEMENT_THEORY = SGP/SGP4

EPOCH          = 2026-02-11T23:57:56.993184
MEAN_MOTION    = 15.45426906
ECCENTRICITY   = .00182178
INCLINATION    = 81.1027
RA_OF_ASC_NODE = 33.7221
ARG_OF_PERICENTER = 132.3465
MEAN_ANOMALY   = 227.9326

EPHEMERIS_TYPE = 0
CLASSIFICATION_TYPE = U
NORAD_CAT_ID   = 13819
ELEMENT_SET_NO = 999
REV_AT_EPOCH   = 35397
BSTAR          = .32743435E-3
MEAN_MOTION_DOT = .158E-3
MEAN_MOTION_DDOT = 0

CCSDS_OMM_VERS = 2.0
CREATION_DATE  = 
ORIGINATOR     = 

OBJECT_NAME    = SL-3 R/B
OBJECT_ID      = 1983-075B
CENTER_NAME    = EARTH
REF_FRAME      = TEME
TIME_SYSTEM    = UTC
MEAN_ELEMENT_THEORY = SGP/SGP4

EPOCH          = 2026-02-12T05:58:57.653760
MEAN_MOTION    = 15.37762228
ECCENTRICITY   = .00206246
INCLINATION    = 97.6132
RA_OF_ASC_NODE = 46.8804
ARG_OF_PERICENTER = 325.6172
MEAN_ANOMALY   = 34.3736

EPHEMERIS_TYPE = 0
CLASSIFICATION_TYPE = U
NORAD_CAT_ID   = 14208
ELEMENT_SET_NO = 999
REV_AT_EPOCH   = 32624
BSTAR          = .36976282E-3
MEAN_MOTION_DOT = .13734E-3
MEAN_MOTION_DDOT = 0

CCSDS_OMM_VERS = 2.0
CREATION_DATE  = 
ORIGINATOR     = 

OBJECT_NAME    = COSMOS 1536
OBJECT_ID      = 1984-013A
CENTER_NAME    = EARTH
REF_FRAME      = TEME
TIME_SYSTEM    = UTC
MEAN_ELEMENT_THEORY = SGP/SGP4

EPOCH          = 2026-02-12T05:43:12.944064
MEAN_MOTION    = 15.23483988
ECCENTRICITY   = .00145606
INCLINATION    = 82.5470
RA_OF_ASC_NODE = 133.1389
ARG_OF_PERICENTER = 17.8488
MEAN_ANOMALY   = 342.3257

EPHEMERIS_TYPE = 0
CLASSIFICATION_TYPE = U
NORAD_CAT_ID   = 14699
ELEMENT_SET_NO = 999
REV_AT_EPOCH   = 26874
BSTAR          = .27337455E-3
MEAN_MOTION_DOT = .657E-4
MEAN_MOTION_DDOT = 0

CCSDS_OMM_VERS = 2.0
CREATION_DATE  = 
ORIGINATOR     = 

OBJECT_NAME    = SL-14 R/B
OBJECT_ID      = 1984-027B
CENTER_NAME    = EARTH
REF_FRAME      = TEME
TIME_SYSTEM    = UTC
MEAN_ELEMENT_THEORY = SGP/SGP4

EPOCH          = 2026-02-12T04:07:44.360544
MEAN_MOTION    = 14.85951140
ECCENTRICITY   = .00193324
INCLINATION    = 82.5394
RA_OF_ASC_NODE = 268.9510
ARG_OF_PERICENTER = 60.3437
MEAN_ANOMALY   = 299.9701

EPHEMERIS_TYPE = 0
CLASSIFICATION_TYPE = U
NORAD_CAT_ID   = 14820
ELEMENT_SET_NO = 999
REV_AT_EPOCH   = 24384
BSTAR          = .52481573E-4
MEAN_MOTION_DOT = .484E-5
MEAN_MOTION_DDOT = 0

CCSDS_OMM_VERS = 2.0
CREATION_DATE  = 
ORIGINATOR     = 

OBJECT_NAME    = SL-8 R/B
OBJECT_ID      = 1985-006B
CENTER_NAME    = EARTH
REF_FRAME      = TEME
TIME_SYSTEM    = UTC
MEAN_ELEMENT_THEORY = SGP/SGP4

EPOCH          = 2026-02-12T05:04:22.581408
MEAN_MOTION    = 14.37770707
ECCENTRICITY   = .00193825
INCLINATION    = 74.0466
RA_OF_ASC_NODE = 308.0312
ARG_OF_PERICENTER = 230.8843
MEAN_ANOMALY   = 291.9178

EPHEMERIS_TYPE = 0
CLASSIFICATION_TYPE = U
NORAD_CAT_ID   = 15483
ELEMENT_SET_NO = 999
REV_AT_EPOCH   = 15036
BSTAR          = .87821663E-4
MEAN_MOTION_DOT = .239E-5
MEAN_MOTION_DDOT = 0

CCSDS_OMM_VERS = 2.0
CREATION_DATE  = 
ORIGINATOR     = 

OBJECT_NAME    = SL-12 R/B(2)
OBJECT_ID      = 1985-042D
CENTER_NAME    = EARTH
REF_FRAME      = TEME
TIME_SYSTEM    = UTC
MEAN_ELEMENT_THEORY = SGP/SGP4

EPOCH          = 2026-02-11T17:56:01.505760
MEAN_MOTION    = 14.21975225
ECCENTRICITY   = .00347447
INCLINATION    = 71.1087
RA_OF_ASC_NODE = 142.5376
ARG_OF_PERICENTER = 169.8152
MEAN_ANOMALY   = 306.1122

EPHEMERIS_TYPE = 0
CLASSIFICATION_TYPE = U
NORAD_CAT_ID   = 15772
ELEMENT_SET_NO = 999
REV_AT_EPOCH   = 11070
BSTAR          = .84298862E-4
MEAN_MOTION_DOT = .14E-5
MEAN_MOTION_DDOT = 0

CCSDS_OMM_VERS = 2.0
CREATION_DATE  = 
ORIGINATOR     = 

OBJECT_NAME    = SL-14 R/B
OBJECT_ID      = 1985-069B
CENTER_NAME    = EARTH
REF_FRAME      = TEME
TIME_SYSTEM    = UTC
MEAN_ELEMENT_THEORY = SGP/SGP4

EPOCH          = 2026-02-12T00:43:03.857664
MEAN_MOTION    = 14.86402598
ECCENTRICITY   = .00171969
INCLINATION    = 82.5241
RA_OF_ASC_NODE = 49.0659
ARG_OF_PERICENTER = 278.3209
MEAN_ANOMALY   = 81.6057

EPHEMERIS_TYPE = 0
CLASSIFICATION_TYPE = U
NORAD_CAT_ID   = 15945
ELEMENT_SET_NO = 999
REV_AT_EPOCH   = 16902
BSTAR          = .65234854E-4
MEAN_MOTION_DOT = .601E-5
MEAN_MOTION_DDOT = 0

CCSDS_OMM_VERS = 2.0
CREATION_DATE  = 
ORIGINATOR     = 

OBJECT_NAME    = SL-16 R/B
OBJECT_ID      = 1985-097B
CENTER_NAME    = EARTH
REF_FRAME      = TEME
TIME_SYSTEM    = UTC
MEAN_ELEMENT_THEORY = SGP/SGP4

EPOCH          = 2026-02-11T20:52:39.156096
MEAN_MOTION    = 14.16595725
ECCENTRICITY   = .0009704
INCLINATION    = 71.0020
RA_OF_ASC_NODE = 194.9075
ARG_OF_PERICENTER = 289.8410
MEAN_ANOMALY   = 182.4138

EPHEMERIS_TYPE = 0
CLASSIFICATION_TYPE = U
NORAD_CAT_ID   = 16182
ELEMENT_SET_NO = 999
REV_AT_EPOCH   = 8357
BSTAR          = -.75913E-4
MEAN_MOTION_DOT = -.199E-5
MEAN_MOTION_DDOT = 0

CCSDS_OMM_VERS = 2.0
CREATION_DATE  = 
ORIGINATOR     = 

OBJECT_NAME    = SL-14 R/B
OBJECT_ID      = 1986-006B
CENTER_NAME    = EARTH
REF_FRAME      = TEME
TIME_SYSTEM    = UTC
MEAN_ELEMENT_THEORY = SGP/SGP4

EPOCH          = 2026-02-12T03:33:34.140384
MEAN_MOTION    = 14.86780878
ECCENTRICITY   = .00766172
INCLINATION    = 82.5260
RA_OF_ASC_NODE = 283.7788
ARG_OF_PERICENTER = 358.5733
MEAN_ANOMALY   = 1.5252

EPHEMERIS_TYPE = 0
CLASSIFICATION_TYPE = U
NORAD_CAT_ID   = 16496
ELEMENT_SET_NO = 999
REV_AT_EPOCH   = 14541
BSTAR          = .78371866E-4
MEAN_MOTION_DOT = .762E-5
MEAN_MOTION_DDOT = 0

CCSDS_OMM_VERS = 2.0
CREATION_DATE  = 
ORIGINATOR     = 

OBJECT_NAME    = COSMOS 1743
OBJECT_ID      = 1986-034A
CENTER_NAME    = EARTH
REF_FRAME      = TEME
TIME_SYSTEM    = UTC
MEAN_ELEMENT_THEORY = SGP/SGP4

EPOCH          = 2026-02-12T04:49:39.119808
MEAN_MOTION    = 15.56693467
ECCENTRICITY   = .00047833
INCLINATION    = 82.5329
RA_OF_ASC_NODE = 100.5425
ARG_OF_PERICENTER = 42.6153
MEAN_ANOMALY   = 317.5472

EPHEMERIS_TYPE = 0
CLASSIFICATION_TYPE = U
NORAD_CAT_ID   = 16719
ELEMENT_SET_NO = 999
REV_AT_EPOCH   = 17628
BSTAR          = .49403792E-3
MEAN_MOTION_DOT = .35386E-3
MEAN_MOTION_DDOT = 0

